[{"OBJECT_NAME":"STARLINK-31540","OBJECT_ID":"2024-074J","EPOCH":"2026-03-09T03:30:32.001408","MEAN_MOTION":15.27607513,"ECCENTRICITY":0.00014766,"INCLINATION":43.005,"RA_OF_ASC_NODE":346.3865,"ARG_OF_PERICENTER":292.6506,"MEAN_ANOMALY":67.4189,"EPHEMERIS_TYPE":0,"CLASSIFICATION_TYPE":"U","NORAD_CAT_ID":59542,"ELEMENT_SET_NO":999,"REV_AT_EPOCH":10593,"BSTAR":0.00011655886,"MEAN_MOTION_DOT":2.949e-5,"MEAN_MOTION_DDOT":0},{"OBJECT_NAME":"HERMES-2","OBJECT_ID":"2025-052AK","EPOCH":"2026-03-09T22:17:00.130272","MEAN_MOTION":15.28021069,"ECCENTRICITY":0.00063399,"INCLINATION":97.4004,"RA_OF_ASC_NODE":324.4926,"ARG_OF_PERICENTER":99.416,"MEAN_ANOMALY":260.7796,"EPHEMERIS_TYPE":0,"CLASSIFICATION_TYPE":"U","NORAD_CAT_ID":63243,"ELEMENT_SET_NO":999,"REV_AT_EPOCH":5485,"BSTAR":0.00034839454,"MEAN_MOTION_DOT":9.456e-5,"MEAN_MOTION_DDOT":0}]
